{
  "type": "FeatureCollection",
  "features": [
    {
      "type": "Feature",
      "properties": {
        "norad_id": 66512,
        "name": "STARLINK-35366",
        "group": "last-30-days",
        "lat": 9.25004087856807,
        "lon": -36.97937261406823,
        "alt_km": 409.8135675784679,
        "timestamp": "2025-12-07T22:37:41.856871+00:00",
        "meta_object_name": "STARLINK-35366",
        "meta_object_id": "2025-263AD",
        "meta_epoch": "2025-12-07T06:00:04.999968",
        "meta_mean_motion": 15.55006379,
        "meta_eccentricity": 0.00015325,
        "meta_inclination": 43.0001,
        "meta_ra_of_asc_node": 157.1563,
        "meta_arg_of_pericenter": 255.8177,
        "meta_mean_anomaly": 351.5077,
        "meta_ephemeris_type": 0,
        "meta_classification_type": "U",
        "meta_norad_cat_id": 66512,
        "meta_element_set_no": 999,
        "meta_rev_at_epoch": 475,
        "meta_bstar": -0.034237118,
        "meta_mean_motion_dot": -0.02097407,
        "meta_mean_motion_ddot": 0,
        "tle_line1": "1 66512U 25263AD  25341.25005787 -.02097407  00000+0 -34237-1 0  9997",
        "tle_line2": "2 66512  43.0001 157.1563 0001532 255.8177 351.5077 15.55006379  4759"
      },
      "geometry": {
        "type": "Point",
        "coordinates": [
          -36.97937261406823,
          9.25004087856807
        ]
      }
    },
    {
      "type": "Feature",
      "properties": {
        "norad_id": 66513,
        "name": "STARLINK-35692",
        "group": "last-30-days",
        "lat": 13.06960415521071,
        "lon": -41.324521845251674,
        "alt_km": 409.44304437642495,
        "timestamp": "2025-12-07T22:37:41.856881+00:00",
        "meta_object_name": "STARLINK-35692",
        "meta_object_id": "2025-263AE",
        "meta_epoch": "2025-12-07T06:00:04.999968",
        "meta_mean_motion": 15.54997023,
        "meta_eccentricity": 0.00013971,
        "meta_inclination": 43.0003,
        "meta_ra_of_asc_node": 157.1715,
        "meta_arg_of_pericenter": 260.2332,
        "meta_mean_anomaly": 341.3446,
        "meta_ephemeris_type": 0,
        "meta_classification_type": "U",
        "meta_norad_cat_id": 66513,
        "meta_element_set_no": 999,
        "meta_rev_at_epoch": 475,
        "meta_bstar": -0.033910117,
        "meta_mean_motion_dot": -0.02078832,
        "meta_mean_motion_ddot": 0,
        "tle_line1": "1 66513U 25263AE  25341.25005787 -.02078832  00000+0 -33910-1 0  9996",
        "tle_line2": "2 66513  43.0003 157.1715 0001397 260.2332 341.3446 15.54997023  4754"
      },
      "geometry": {
        "type": "Point",
        "coordinates": [
          -41.324521845251674,
          13.06960415521071
        ]
      }
    },
    {
      "type": "Feature",
      "properties": {
        "norad_id": 66514,
        "name": "SENTINEL-6B",
        "group": "last-30-days",
        "lat": -58.757039788162984,
        "lon": 125.2714597040994,
        "alt_km": 1315.9971448435745,
        "timestamp": "2025-12-07T22:37:41.856894+00:00",
        "meta_object_name": "SENTINEL-6B",
        "meta_object_id": "2025-264A",
        "meta_epoch": "2025-12-05T07:31:22.416096",
        "meta_mean_motion": 12.85877769,
        "meta_eccentricity": 0.00115488,
        "meta_inclination": 66.0393,
        "meta_ra_of_asc_node": 177.917,
        "meta_arg_of_pericenter": 268.4031,
        "meta_mean_anomaly": 91.5664,
        "meta_ephemeris_type": 0,
        "meta_classification_type": "U",
        "meta_norad_cat_id": 66514,
        "meta_element_set_no": 999,
        "meta_rev_at_epoch": 233,
        "meta_bstar": 0.00030181714,
        "meta_mean_motion_dot": 1.3e-07,
        "meta_mean_motion_ddot": 0,
        "tle_line1": "1 66514U 25264A   25339.31345389  .00000013  00000+0  30182-3 0  9999",
        "tle_line2": "2 66514  66.0393 177.9170 0011548 268.4031  91.5664 12.85877769  2335"
      },
      "geometry": {
        "type": "Point",
        "coordinates": [
          125.2714597040994,
          -58.757039788162984
        ]
      }
    },
    {
      "type": "Feature",
      "properties": {
        "norad_id": 66516,
        "name": "STARLINK-35924",
        "group": "last-30-days",
        "lat": -37.309714182829815,
        "lon": 27.282785190538764,
        "alt_km": 391.44225162378007,
        "timestamp": "2025-12-07T22:37:41.856905+00:00",
        "meta_object_name": "STARLINK-35924",
        "meta_object_id": "2025-265A",
        "meta_epoch": "2025-12-07T06:00:04.999968",
        "meta_mean_motion": 15.62253031,
        "meta_eccentricity": 0.00015303,
        "meta_inclination": 43.0003,
        "meta_ra_of_asc_node": 86.2627,
        "meta_arg_of_pericenter": 274.5364,
        "meta_mean_anomaly": 85.4113,
        "meta_ephemeris_type": 0,
        "meta_classification_type": "U",
        "meta_norad_cat_id": 66516,
        "meta_element_set_no": 999,
        "meta_rev_at_epoch": 409,
        "meta_bstar": -0.024513282,
        "meta_mean_motion_dot": -0.01957883,
        "meta_mean_motion_ddot": 0,
        "tle_line1": "1 66516U 25265A   25341.25005787 -.01957883  00000+0 -24513-1 0  9991",
        "tle_line2": "2 66516  43.0003  86.2627 0001530 274.5364  85.4113 15.62253031  4090"
      },
      "geometry": {
        "type": "Point",
        "coordinates": [
          27.282785190538764,
          -37.309714182829815
        ]
      }
    },
    {
      "type": "Feature",
      "properties": {
        "norad_id": 66517,
        "name": "STARLINK-35937",
        "group": "last-30-days",
        "lat": -36.538026266594564,
        "lon": 29.47032235267741,
        "alt_km": 391.38745550172644,
        "timestamp": "2025-12-07T22:37:41.856915+00:00",
        "meta_object_name": "STARLINK-35937",
        "meta_object_id": "2025-265B",
        "meta_epoch": "2025-12-07T06:00:04.999968",
        "meta_mean_motion": 15.62250515,
        "meta_eccentricity": 0.000157,
        "meta_inclination": 43,
        "meta_ra_of_asc_node": 86.2585,
        "meta_arg_of_pericenter": 275.1608,
        "meta_mean_anomaly": 86.707,
        "meta_ephemeris_type": 0,
        "meta_classification_type": "U",
        "meta_norad_cat_id": 66517,
        "meta_element_set_no": 999,
        "meta_rev_at_epoch": 411,
        "meta_bstar": -0.02449656,
        "meta_mean_motion_dot": -0.01956566,
        "meta_mean_motion_ddot": 0,
        "tle_line1": "1 66517U 25265B   25341.25005787 -.01956566  00000+0 -24497-1 0  9990",
        "tle_line2": "2 66517  43.0000  86.2585 0001570 275.1608  86.7070 15.62250515  4116"
      },
      "geometry": {
        "type": "Point",
        "coordinates": [
          29.47032235267741,
          -36.538026266594564
        ]
      }
    },
    {
      "type": "Feature",
      "properties": {
        "norad_id": 66518,
        "name": "STARLINK-35962",
        "group": "last-30-days",
        "lat": -35.726524653891175,
        "lon": 31.614893448264727,
        "alt_km": 391.36489582272407,
        "timestamp": "2025-12-07T22:37:41.856926+00:00",
        "meta_object_name": "STARLINK-35962",
        "meta_object_id": "2025-265C",
        "meta_epoch": "2025-12-07T06:00:04.999968",
        "meta_mean_motion": 15.62250457,
        "meta_eccentricity": 0.00015477,
        "meta_inclination": 43.0001,
        "meta_ra_of_asc_node": 86.2534,
        "meta_arg_of_pericenter": 275.8012,
        "meta_mean_anomaly": 87.9825,
        "meta_ephemeris_type": 0,
        "meta_classification_type": "U",
        "meta_norad_cat_id": 66518,
        "meta_element_set_no": 999,
        "meta_rev_at_epoch": 411,
        "meta_bstar": -0.024477171,
        "meta_mean_motion_dot": -0.01955183,
        "meta_mean_motion_ddot": 0,
        "tle_line1": "1 66518U 25265C   25341.25005787 -.01955183  00000+0 -24477-1 0  9993",
        "tle_line2": "2 66518  43.0001  86.2534 0001547 275.8012  87.9825 15.62250457  4118"
      },
      "geometry": {
        "type": "Point",
        "coordinates": [
          31.614893448264727,
          -35.726524653891175
        ]
      }
    },
    {
      "type": "Feature",
      "properties": {
        "norad_id": 66519,
        "name": "STARLINK-35931",
        "group": "last-30-days",
        "lat": -34.877744392689095,
        "lon": 33.71481047441615,
        "alt_km": 391.3294026029798,
        "timestamp": "2025-12-07T22:37:41.856936+00:00",
        "meta_object_name": "STARLINK-35931",
        "meta_object_id": "2025-265D",
        "meta_epoch": "2025-12-07T06:00:04.999968",
        "meta_mean_motion": 15.62250074,
        "meta_eccentricity": 0.00015435,
        "meta_inclination": 43.0002,
        "meta_ra_of_asc_node": 86.2484,
        "meta_arg_of_pericenter": 276.3339,
        "meta_mean_anomaly": 89.3662,
        "meta_ephemeris_type": 0,
        "meta_classification_type": "U",
        "meta_norad_cat_id": 66519,
        "meta_element_set_no": 999,
        "meta_rev_at_epoch": 411,
        "meta_bstar": -0.024459264,
        "meta_mean_motion_dot": -0.01953895,
        "meta_mean_motion_ddot": 0,
        "tle_line1": "1 66519U 25265D   25341.25005787 -.01953895  00000+0 -24459-1 0  9992",
        "tle_line2": "2 66519  43.0002  86.2484 0001543 276.3339  89.3662 15.62250074  4118"
      },
      "geometry": {
        "type": "Point",
        "coordinates": [
          33.71481047441615,
          -34.877744392689095
        ]
      }
    }
  ]
}